{
  "norad_id": 57229,
  "name": "STARLINK-6233",
  "history": [
    {
      "epoch": "2026-03-28T21:38:42.266112",
      "apogee_km": 486.4421728632824,
      "perigee_km": 484.6589868300389,
      "latitude_deg": -28.179543209491626,
      "longitude_deg": -10.519704320002347,
      "semi_major_axis_km": 6863.687579846661,
      "eccentricity": 0.0001299,
      "inclination_deg": 43.0018,
      "raan_deg": 282.2233,
      "arg_perigee_deg": 269.9993,
      "mean_anomaly_deg": 90.0709,
      "mean_motion_rev_day": 15.26744982
    }
  ]
}